<?xml version='1.0' encoding='utf-8'?>
<q:quakeml xmlns="http://quakeml.org/xmlns/bed/1.2" xmlns:q="http://quakeml.org/xmlns/quakeml/1.2">
  <eventParameters publicID="smi:local/612e1838-ac14-4ce8-a097-94d109b999ac">
    <event publicID="smi:local/753663f3-2f91-4385-b2c9-3f05dfa5cbc4">
      <origin publicID="smi:local/ee506ac7-88a0-48c9-aa3e-767aa7a41532">
        <time>
          <value>2023-10-24T04:58:44.924359Z</value>
        </time>
        <latitude>
          <value>-38.732389548058705</value>
        </latitude>
        <longitude>
          <value>143.5303831547119</value>
        </longitude>
        <depth>
          <value>9765.625</value>
        </depth>
        <depthType>from location</depthType>
        <quality>
          <usedPhaseCount>7</usedPhaseCount>
        </quality>
        <evaluationMode>automatic</evaluationMode>
        <evaluationStatus>preliminary</evaluationStatus>
        <comment>
          <text>Localized by: SeisBench-PyOcto</text>
        </comment>
      </origin>
      <magnitude publicID="smi:local/0718544d-8cca-4ea5-b935-9064027ad81d">
        <mag>
          <value>99.0</value>
        </mag>
        <type>ML</type>
      </magnitude>
      <pick publicID="smi:local/7ef2f2cf-dc15-4e4c-b405-7e2197b38c91">
        <time>
          <value>2023-10-24T04:58:47.498667Z</value>
        </time>
        <waveformID networkCode="VW" stationCode="ABM1Y" locationCode="00" channelCode="P"></waveformID>
        <phaseHint>P</phaseHint>
        <evaluationMode>automatic</evaluationMode>
        <evaluationStatus>preliminary</evaluationStatus>
        <comment id="smi:local/cfa92866-0a9f-4873-8398-96f71631caba">
          <text>residual=-0.191 s</text>
        </comment>
      </pick>
      <pick publicID="smi:local/dc775a76-16d1-4d1d-a3c9-9689a3c8c985">
        <time>
          <value>2023-10-24T04:58:49.678667Z</value>
        </time>
        <waveformID networkCode="VW" stationCode="ABM1Y" locationCode="00" channelCode="S"></waveformID>
        <phaseHint>S</phaseHint>
        <evaluationMode>automatic</evaluationMode>
        <evaluationStatus>preliminary</evaluationStatus>
        <comment id="smi:local/1229ccaf-2fcc-4b5e-8130-33487a95ae74">
          <text>residual=0.119 s</text>
        </comment>
      </pick>
      <pick publicID="smi:local/18b8da14-fa77-4f65-bd74-786731688a10">
        <time>
          <value>2023-10-24T04:58:47.710000Z</value>
        </time>
        <waveformID networkCode="VW" stationCode="ABM2Y" locationCode="00" channelCode="P"></waveformID>
        <phaseHint>P</phaseHint>
        <evaluationMode>automatic</evaluationMode>
        <evaluationStatus>preliminary</evaluationStatus>
        <comment id="smi:local/2c885b4f-33b7-4104-9d94-85d2b0726132">
          <text>residual=0.071 s</text>
        </comment>
      </pick>
      <pick publicID="smi:local/4d891aa8-848d-4c77-b988-8040d98f5b60">
        <time>
          <value>2023-10-24T04:58:49.540000Z</value>
        </time>
        <waveformID networkCode="VW" stationCode="ABM2Y" locationCode="00" channelCode="S"></waveformID>
        <phaseHint>S</phaseHint>
        <evaluationMode>automatic</evaluationMode>
        <evaluationStatus>preliminary</evaluationStatus>
        <comment id="smi:local/854987e6-01c2-4206-94ee-fa20d3827f02">
          <text>residual=0.066 s</text>
        </comment>
      </pick>
      <pick publicID="smi:local/7f608933-189a-4647-a468-347493adb41d">
        <time>
          <value>2023-10-24T04:58:48.566000Z</value>
        </time>
        <waveformID networkCode="VW" stationCode="ABM3Y" locationCode="00" channelCode="S"></waveformID>
        <phaseHint>S</phaseHint>
        <evaluationMode>automatic</evaluationMode>
        <evaluationStatus>preliminary</evaluationStatus>
        <comment id="smi:local/df2eb0be-8455-4130-bf07-ad6d9a4d8196">
          <text>residual=-0.056 s</text>
        </comment>
      </pick>
      <pick publicID="smi:local/c892d44d-4533-46cd-9644-6547b043d87f">
        <time>
          <value>2023-10-24T04:58:46.762000Z</value>
        </time>
        <waveformID networkCode="VW" stationCode="ABM4Y" locationCode="00" channelCode="P"></waveformID>
        <phaseHint>P</phaseHint>
        <evaluationMode>automatic</evaluationMode>
        <evaluationStatus>preliminary</evaluationStatus>
        <comment id="smi:local/5c59e6e2-0627-49de-addd-157840f0826d">
          <text>residual=0.039 s</text>
        </comment>
      </pick>
      <pick publicID="smi:local/17929096-1c67-412d-a7c2-6fd367359a81">
        <time>
          <value>2023-10-24T04:58:47.892000Z</value>
        </time>
        <waveformID networkCode="VW" stationCode="ABM4Y" locationCode="00" channelCode="S"></waveformID>
        <phaseHint>S</phaseHint>
        <evaluationMode>automatic</evaluationMode>
        <evaluationStatus>preliminary</evaluationStatus>
        <comment id="smi:local/c251b6b1-c169-4a45-b8e9-ac04ec1900f7">
          <text>residual=-0.047 s</text>
        </comment>
      </pick>
    </event>
    <event publicID="smi:local/675f327d-62f1-4407-b718-7462fa871786">
      <origin publicID="smi:local/d7fa9ef3-cd45-40b8-a5b0-b953e1770522">
        <time>
          <value>2023-10-24T08:39:54.396367Z</value>
        </time>
        <latitude>
          <value>-38.732389548058705</value>
        </latitude>
        <longitude>
          <value>143.5303831547119</value>
        </longitude>
        <depth>
          <value>8984.375</value>
        </depth>
        <depthType>from location</depthType>
        <quality>
          <usedPhaseCount>7</usedPhaseCount>
        </quality>
        <evaluationMode>automatic</evaluationMode>
        <evaluationStatus>preliminary</evaluationStatus>
        <comment>
          <text>Localized by: SeisBench-PyOcto</text>
        </comment>
      </origin>
      <magnitude publicID="smi:local/a1a9967d-3cfc-4894-b763-636caa801032">
        <mag>
          <value>99.0</value>
        </mag>
        <type>ML</type>
      </magnitude>
      <pick publicID="smi:local/925a6f3a-06de-4d42-a8b8-1a5fa5fa1748">
        <time>
          <value>2023-10-24T08:39:59.048667Z</value>
        </time>
        <waveformID networkCode="VW" stationCode="ABM1Y" locationCode="00" channelCode="S"></waveformID>
        <phaseHint>S</phaseHint>
        <evaluationMode>automatic</evaluationMode>
        <evaluationStatus>preliminary</evaluationStatus>
        <comment id="smi:local/6c8f8304-f147-4ff2-b4ed-80b0cb85cd59">
          <text>residual=0.158 s</text>
        </comment>
      </pick>
      <pick publicID="smi:local/c1a9d67d-70dc-4b16-80b4-4a3c1fccab80">
        <time>
          <value>2023-10-24T08:39:56.950000Z</value>
        </time>
        <waveformID networkCode="VW" stationCode="ABM2Y" locationCode="00" channelCode="P"></waveformID>
        <phaseHint>P</phaseHint>
        <evaluationMode>automatic</evaluationMode>
        <evaluationStatus>preliminary</evaluationStatus>
        <comment id="smi:local/8cbb8592-666a-4c22-aee1-3da9f69f8fea">
          <text>residual=-0.074 s</text>
        </comment>
      </pick>
      <pick publicID="smi:local/e3b0eaa3-04c0-4911-a135-221d9392a768">
        <time>
          <value>2023-10-24T08:39:58.710000Z</value>
        </time>
        <waveformID networkCode="VW" stationCode="ABM2Y" locationCode="00" channelCode="S"></waveformID>
        <phaseHint>S</phaseHint>
        <evaluationMode>automatic</evaluationMode>
        <evaluationStatus>preliminary</evaluationStatus>
        <comment id="smi:local/f4e64ea2-2b6a-41dd-8994-b2fa1d7d39ee">
          <text>residual=-0.092 s</text>
        </comment>
      </pick>
      <pick publicID="smi:local/7095b302-db1f-4503-b141-d7d053986def">
        <time>
          <value>2023-10-24T08:39:56.072000Z</value>
        </time>
        <waveformID networkCode="VW" stationCode="ABM4Y" locationCode="00" channelCode="P"></waveformID>
        <phaseHint>P</phaseHint>
        <evaluationMode>automatic</evaluationMode>
        <evaluationStatus>preliminary</evaluationStatus>
        <comment id="smi:local/b04d6662-1c9a-4703-9665-45277ff619d4">
          <text>residual=0.004 s</text>
        </comment>
      </pick>
      <pick publicID="smi:local/ff374eed-bbbd-4878-a67f-117e99e87dec">
        <time>
          <value>2023-10-24T08:39:57.222000Z</value>
        </time>
        <waveformID networkCode="VW" stationCode="ABM4Y" locationCode="00" channelCode="S"></waveformID>
        <phaseHint>S</phaseHint>
        <evaluationMode>automatic</evaluationMode>
        <evaluationStatus>preliminary</evaluationStatus>
        <comment id="smi:local/83fe0025-2160-4d27-9f4c-a834cf80a8c4">
          <text>residual=0.023 s</text>
        </comment>
      </pick>
      <pick publicID="smi:local/3d2cb546-d603-406c-b77d-904e4c95788a">
        <time>
          <value>2023-10-24T08:39:56.450000Z</value>
        </time>
        <waveformID networkCode="VW" stationCode="ABM5Y" locationCode="00" channelCode="P"></waveformID>
        <phaseHint>P</phaseHint>
        <evaluationMode>automatic</evaluationMode>
        <evaluationStatus>preliminary</evaluationStatus>
        <comment id="smi:local/1b767f18-6ca9-4bed-908a-1e3a0c5eeec8">
          <text>residual=0.019 s</text>
        </comment>
      </pick>
      <pick publicID="smi:local/b53ba6ae-dfd5-484c-aa0a-149d133b0475">
        <time>
          <value>2023-10-24T08:39:57.770000Z</value>
        </time>
        <waveformID networkCode="VW" stationCode="ABM5Y" locationCode="00" channelCode="S"></waveformID>
        <phaseHint>S</phaseHint>
        <evaluationMode>automatic</evaluationMode>
        <evaluationStatus>preliminary</evaluationStatus>
        <comment id="smi:local/28ce9a09-991a-436b-b281-c4e1645a1f73">
          <text>residual=-0.037 s</text>
        </comment>
      </pick>
    </event>
    <event publicID="smi:local/f9920ab4-fc2c-41fb-a9f8-c58630058dbd">
      <origin publicID="smi:local/f0c37eaf-9149-48f4-84db-9ce7becbab33">
        <time>
          <value>2023-10-24T12:03:46.558947Z</value>
        </time>
        <latitude>
          <value>-38.71903644845065</value>
        </latitude>
        <longitude>
          <value>143.5303877546091</value>
        </longitude>
        <depth>
          <value>8203.125</value>
        </depth>
        <depthType>from location</depthType>
        <quality>
          <usedPhaseCount>9</usedPhaseCount>
        </quality>
        <evaluationMode>automatic</evaluationMode>
        <evaluationStatus>preliminary</evaluationStatus>
        <comment>
          <text>Localized by: SeisBench-PyOcto</text>
        </comment>
      </origin>
      <magnitude publicID="smi:local/4ca5900b-86f6-4d3a-a785-343fee058f61">
        <mag>
          <value>99.0</value>
        </mag>
        <type>ML</type>
      </magnitude>
      <pick publicID="smi:local/1e7bc0d1-c6fd-43bf-a170-016965ee4b5d">
        <time>
          <value>2023-10-24T12:03:49.078667Z</value>
        </time>
        <waveformID networkCode="VW" stationCode="ABM1Y" locationCode="00" channelCode="P"></waveformID>
        <phaseHint>P</phaseHint>
        <evaluationMode>automatic</evaluationMode>
        <evaluationStatus>preliminary</evaluationStatus>
        <comment id="smi:local/2e044654-3228-4d64-aa84-f856cd606643">
          <text>residual=0.044 s</text>
        </comment>
      </pick>
      <pick publicID="smi:local/7675db90-7f90-48c8-a1c6-5619a4fc6bf8">
        <time>
          <value>2023-10-24T12:03:51.008667Z</value>
        </time>
        <waveformID networkCode="VW" stationCode="ABM1Y" locationCode="00" channelCode="S"></waveformID>
        <phaseHint>S</phaseHint>
        <evaluationMode>automatic</evaluationMode>
        <evaluationStatus>preliminary</evaluationStatus>
        <comment id="smi:local/f3efc1c4-0056-4614-9301-e778bfaba008">
          <text>residual=0.300 s</text>
        </comment>
      </pick>
      <pick publicID="smi:local/154cb813-9fe6-4d76-9122-aa83759f4498">
        <time>
          <value>2023-10-24T12:03:48.840000Z</value>
        </time>
        <waveformID networkCode="VW" stationCode="ABM2Y" locationCode="00" channelCode="P"></waveformID>
        <phaseHint>P</phaseHint>
        <evaluationMode>automatic</evaluationMode>
        <evaluationStatus>preliminary</evaluationStatus>
        <comment id="smi:local/988f1137-72e7-4295-a00b-cf035fbaf4f2">
          <text>residual=-0.083 s</text>
        </comment>
      </pick>
      <pick publicID="smi:local/f7693d12-78a5-41cd-bf8f-e77c348dec0a">
        <time>
          <value>2023-10-24T12:03:50.510000Z</value>
        </time>
        <waveformID networkCode="VW" stationCode="ABM2Y" locationCode="00" channelCode="S"></waveformID>
        <phaseHint>S</phaseHint>
        <evaluationMode>automatic</evaluationMode>
        <evaluationStatus>preliminary</evaluationStatus>
        <comment id="smi:local/93585736-03d4-45cd-bec5-608a6dd925d5">
          <text>residual=-0.011 s</text>
        </comment>
      </pick>
      <pick publicID="smi:local/94ec3fc5-ae33-4c5f-947f-f31df3eac3ab">
        <time>
          <value>2023-10-24T12:03:49.626000Z</value>
        </time>
        <waveformID networkCode="VW" stationCode="ABM3Y" locationCode="00" channelCode="S"></waveformID>
        <phaseHint>S</phaseHint>
        <evaluationMode>automatic</evaluationMode>
        <evaluationStatus>preliminary</evaluationStatus>
        <comment id="smi:local/dafd08b1-751e-4c86-9975-dccd902d7bef">
          <text>residual=-0.288 s</text>
        </comment>
      </pick>
      <pick publicID="smi:local/2353a93b-28e8-4aef-bd03-d5e8bb7353c2">
        <time>
          <value>2023-10-24T12:03:48.172000Z</value>
        </time>
        <waveformID networkCode="VW" stationCode="ABM4Y" locationCode="00" channelCode="P"></waveformID>
        <phaseHint>P</phaseHint>
        <evaluationMode>automatic</evaluationMode>
        <evaluationStatus>preliminary</evaluationStatus>
        <comment id="smi:local/518dce55-47ee-4c81-ad95-fc97f5b02dee">
          <text>residual=-0.036 s</text>
        </comment>
      </pick>
      <pick publicID="smi:local/a5e61b87-3bf2-4358-9681-d2ea8e561466">
        <time>
          <value>2023-10-24T12:03:49.452000Z</value>
        </time>
        <waveformID networkCode="VW" stationCode="ABM4Y" locationCode="00" channelCode="S"></waveformID>
        <phaseHint>S</phaseHint>
        <evaluationMode>automatic</evaluationMode>
        <evaluationStatus>preliminary</evaluationStatus>
        <comment id="smi:local/674c9d14-3cdf-4d31-a45d-282a48fd6bb5">
          <text>residual=0.129 s</text>
        </comment>
      </pick>
      <pick publicID="smi:local/2715110d-a150-4e16-8f01-5f09bb2c8772">
        <time>
          <value>2023-10-24T12:03:48.470000Z</value>
        </time>
        <waveformID networkCode="VW" stationCode="ABM5Y" locationCode="00" channelCode="P"></waveformID>
        <phaseHint>P</phaseHint>
        <evaluationMode>automatic</evaluationMode>
        <evaluationStatus>preliminary</evaluationStatus>
        <comment id="smi:local/46d92ef1-3fa9-43dd-aae6-abe81b258ce2">
          <text>residual=-0.020 s</text>
        </comment>
      </pick>
      <pick publicID="smi:local/f0ff4248-538b-40af-9f85-394f7544b60b">
        <time>
          <value>2023-10-24T12:03:49.760000Z</value>
        </time>
        <waveformID networkCode="VW" stationCode="ABM5Y" locationCode="00" channelCode="S"></waveformID>
        <phaseHint>S</phaseHint>
        <evaluationMode>automatic</evaluationMode>
        <evaluationStatus>preliminary</evaluationStatus>
        <comment id="smi:local/fb555108-6781-4012-824c-bce2cfa392bf">
          <text>residual=-0.035 s</text>
        </comment>
      </pick>
    </event>
    <event publicID="smi:local/ab66bd56-0c3d-4d44-a18e-8c3e4e440a9a">
      <origin publicID="smi:local/4f511c10-e7f4-4f5a-867a-1c0bdaf032c5">
        <time>
          <value>2023-10-24T13:16:03.496343Z</value>
        </time>
        <latitude>
          <value>-38.73239187053153</value>
        </latitude>
        <longitude>
          <value>143.56333894874598</value>
        </longitude>
        <depth>
          <value>12890.625</value>
        </depth>
        <depthType>from location</depthType>
        <quality>
          <usedPhaseCount>8</usedPhaseCount>
        </quality>
        <evaluationMode>automatic</evaluationMode>
        <evaluationStatus>preliminary</evaluationStatus>
        <comment>
          <text>Localized by: SeisBench-PyOcto</text>
        </comment>
      </origin>
      <magnitude publicID="smi:local/f240c468-20c5-4ef8-bbc9-4043f0266a83">
        <mag>
          <value>99.0</value>
        </mag>
        <type>ML</type>
      </magnitude>
      <pick publicID="smi:local/6fd34bf1-690f-4572-a4e2-202c1c324965">
        <time>
          <value>2023-10-24T13:16:07.118667Z</value>
        </time>
        <waveformID networkCode="VW" stationCode="ABM1Y" locationCode="00" channelCode="P"></waveformID>
        <phaseHint>P</phaseHint>
        <evaluationMode>automatic</evaluationMode>
        <evaluationStatus>preliminary</evaluationStatus>
        <comment id="smi:local/c461660c-4783-462b-baa5-ee379a2f5781">
          <text>residual=0.203 s</text>
        </comment>
      </pick>
      <pick publicID="smi:local/8e0775f6-e26a-4048-82ee-cb89c0b5465c">
        <time>
          <value>2023-10-24T13:16:09.258667Z</value>
        </time>
        <waveformID networkCode="VW" stationCode="ABM1Y" locationCode="00" channelCode="S"></waveformID>
        <phaseHint>S</phaseHint>
        <evaluationMode>automatic</evaluationMode>
        <evaluationStatus>preliminary</evaluationStatus>
        <comment id="smi:local/dffd0cd2-aec3-4e57-9ef9-fcfb15c9acb1">
          <text>residual=0.030 s</text>
        </comment>
      </pick>
      <pick publicID="smi:local/019f6d53-4566-4334-aa8a-c782cd5e4ef5">
        <time>
          <value>2023-10-24T13:16:06.600000Z</value>
        </time>
        <waveformID networkCode="VW" stationCode="ABM2Y" locationCode="00" channelCode="P"></waveformID>
        <phaseHint>P</phaseHint>
        <evaluationMode>automatic</evaluationMode>
        <evaluationStatus>preliminary</evaluationStatus>
        <comment id="smi:local/2fd9a757-16b2-4d7a-b56c-acf1797797f2">
          <text>residual=0.102 s</text>
        </comment>
      </pick>
      <pick publicID="smi:local/78f08c06-71bf-4f2e-a6ca-aa0634926952">
        <time>
          <value>2023-10-24T13:16:08.290000Z</value>
        </time>
        <waveformID networkCode="VW" stationCode="ABM2Y" locationCode="00" channelCode="S"></waveformID>
        <phaseHint>S</phaseHint>
        <evaluationMode>automatic</evaluationMode>
        <evaluationStatus>preliminary</evaluationStatus>
        <comment id="smi:local/ce226518-434e-403f-9b0f-3e7a8e759904">
          <text>residual=-0.238 s</text>
        </comment>
      </pick>
      <pick publicID="smi:local/3d693e32-01f0-4432-8159-a903c55a1bf4">
        <time>
          <value>2023-10-24T13:16:06.102000Z</value>
        </time>
        <waveformID networkCode="VW" stationCode="ABM4Y" locationCode="00" channelCode="P"></waveformID>
        <phaseHint>P</phaseHint>
        <evaluationMode>automatic</evaluationMode>
        <evaluationStatus>preliminary</evaluationStatus>
        <comment id="smi:local/59290586-b7f1-460e-8ff9-f48c2fcbd3ca">
          <text>residual=0.174 s</text>
        </comment>
      </pick>
      <pick publicID="smi:local/c00e5eae-72f1-45d2-9155-d5355234ce15">
        <time>
          <value>2023-10-24T13:16:07.402000Z</value>
        </time>
        <waveformID networkCode="VW" stationCode="ABM4Y" locationCode="00" channelCode="S"></waveformID>
        <phaseHint>S</phaseHint>
        <evaluationMode>automatic</evaluationMode>
        <evaluationStatus>preliminary</evaluationStatus>
        <comment id="smi:local/06649653-7723-45fe-a806-f96210e42f73">
          <text>residual=-0.171 s</text>
        </comment>
      </pick>
